C/2017 M4 (ATLAS),h,01/17.6131/2019,105.6278,66.0106,167.4058,1.000156,3.235599,2000,6.0,4.0
# From MPC114599
P/2017 P1 (PANSTARRS),e,7.6880,221.4691,122.7670,7.920828,0.0442128,0.30894811,114.0346,07/11.0/2025,2000,g 10.0,4.0
# From MPEC 2022-OB6
P/2017 S8 (PANSTARRS),e,29.8402,191.5068,254.9238,2.778611,0.2127955,0.39113851,219.0212,07/11.0/2025,2000,g 16.0,4.0
# From MPEC 2024-A43
C/2017 T2 (PANSTARRS),e,57.2831,64.4346,92.7771,1606,0.0000153,0.99900167,0.0000,05/06.1039/2020,2000,g  5.0,4.0
# From MPC115882
P/2017 TW13 (Lemmon),e,44.8844,322.1180,120.0233,7.137655,0.0516857,0.71064534,133.0497,07/11.0/2025,2000,g 15.0,2.0
# From MPEC 2022-K19
P/2017 U3 (PANSTARRS),e,15.9226,165.0556,296.4698,4.919459,0.0903292,0.10085917,205.6386,07/11.0/2025,2000,g 11.0,4.0
# From MPEC 2023-A50
C/2017 U7 (PANSTARRS),h,09/16.2402/2019,142.6396,276.3212,326.4139,1.002721,6.418689,2000,8.3,2.0
# From MPC114601
P/2017 W3 (Gibbs),e,18.1891,210.0637,327.7733,7.818230,0.0450860,0.50708620,121.3383,07/11.0/2025,2000,g 10.5,4.0
# From MPEC 2024-DC6
C/2017 Y2 (PANSTARRS),h,11/04.8958/2020,128.4477,66.0288,147.8016,1.001036,4.620961,2000,15.0,4.0
# From MPC111770
P/2017 Y3 (Leonard),e,27.6323,154.0271,67.3190,9.793907,0.0321566,0.86965070,87.1971,07/11.0/2025,2000,g 16.5,4.0
# From MPEC 2021-P47
C/2018 A3 (ATLAS),e,139.6117,194.3611,86.5198,345.9328,0.0001532,0.99047827,0.0000,01/08.6288/2019,2000,g  8.5,4.0
# From MPC109147
P/2018 A5 (PANSTARRS),e,23.6241,87.7836,359.5569,5.624215,0.0738943,0.52450417,209.9686,07/11.0/2025,2000,g 15.0,4.0
# From MPEC 2024-JU4
C/2018 A6 (Gibbs),e,77.1636,340.4615,264.2638,14.99592,0.0169724,0.79884029,37.2157,07/11.0/2025,2000,g  9.0,4.0
# From MPC114601
P/2018 C1 (Lemmon-Read),e,5.1010,270.1871,235.8143,5.649389,0.0734010,0.53268140,197.7076,07/11.0/2025,2000,g 13.5,4.0
# From MPEC 2022-M88
C/2018 DO4 (Lemmon),e,160.4449,251.3962,176.4278,25.53132,0.0076400,0.90513467,16.4633,07/11.0/2025,2000,g 11.0,4.0
# From MPEC 2021-R75
C/2018 F1 (Grauer),e,46.1787,177.3242,71.4172,216.6290,0.0003091,0.98619374,0.0000,12/10.1162/2018,2000,g 11.5,4.0
# From MPEC 2023-A50
C/2018 F4 (PANSTARRS),e,78.1416,26.5404,263.1940,1721,0.0000138,0.99799649,0.0000,11/30.8067/2019,2000,g 11.0,6.0
# From MPEC 2021-Y10
C/2018 F4-A,e,78.1418,26.5406,263.1908,1677,0.0000144,0.99794354,0.0000,11/30.7948/2019,2000,g 11.0,6.0
# From MPEC 2023-D41
C/2018 F4-B,e,78.1427,26.5401,263.1766,1752,0.0000134,0.99803229,0.0000,11/30.7316/2019,2000,g 11.0,6.0
# From MPC114602
P/2018 H2 (PANSTARRS),e,7.4162,67.9864,119.1657,4.409915,0.1064287,0.53982096,294.5201,07/11.0/2025,2000,g 16.6,2.0
# From MPEC 2021-R75
C/2018 KJ3 (Lemmon),e,136.6199,91.6956,217.5296,687.5578,0.0000547,0.99473900,0.0000,09/08.6475/2019,2000,g 12.2,2.0
# From MPEC 2021-P47
C/2018 L2 (ATLAS),e,67.2197,242.9910,56.3434,235.0571,0.0002735,0.99267524,0.0000,11/29.3954/2018,2000,g 10.0,4.0
# From MPC114603
P/2018 L4 (PANSTARRS),e,26.5959,145.2196,140.5001,4.948879,0.0895249,0.65831763,227.6432,07/11.0/2025,2000,g 17.5,4.0
# From MPEC 2022-YN2
C/2018 N2 (ASASSN),h,11/12.0927/2019,77.4918,24.5296,25.3269,1.002033,3.135801,2000,6.0,4.0
# From MPC114603
P/2018 P4 (PANSTARRS),e,23.0769,353.1592,8.5166,6.696077,0.0568818,0.44897657,138.6893,07/11.0/2025,2000,g 12.0,4.0
# From MPEC 2021-P47
C/2018 P5 (PANSTARRS),e,7.2465,216.2724,132.0322,12.84322,0.0214138,0.64151584,49.8410,07/11.0/2025,2000,g 11.0,4.0
# From MPC118841
C/2018 R3 (Lemmon),e,69.6859,324.3517,112.8133,1803,0.0000129,0.99928751,0.0000,06/07.9857/2019,2000,g  9.5,4.0
# From MPC114603
C/2018 R5 (Lemmon),e,103.6794,171.2738,178.2719,22.97984,0.0089471,0.84169871,21.2334,07/11.0/2025,2000,g 11.5,4.0
# From MPEC 2022-QC6
C/2018 S2 (TESS),e,64.1106,85.1074,290.9553,14.36951,0.0180943,0.61780561,44.1458,07/11.0/2025,2000,g  7.5,4.0
# From MPC184408
C/2018 U1 (Lemmon),h,11/02.0912/2021,108.3258,75.5136,180.3468,1.000069,4.985622,2000,5.0,4.0
# From MPC114604
C/2018 V1 (Machholz-Fujikawa-Iwamoto),h,12/04.2073/2018,144.2047,129.6236,89.5877,1.000464,0.390542,2000,12.0,4.0
# From MPC115884
C/2018 V2 (ATLAS),e,159.1609,357.2305,319.2966,25.25444,0.0077660,0.90131924,18.7823,07/11.0/2025,2000,g 15.0,4.0
# From MPEC 2025-A40
P/2018 VN2 (Leonard),e,18.2567,226.4376,138.9256,4.061147,0.1204290,0.47813841,311.7385,07/11.0/2025,2000,g 15.0,4.0
# From MPEC 2025-A40
A/2018 V3,e,164.9115,308.8240,3.5720,127.1044,0.0006878,0.98954029,0.0000,09/10.4889/2019,2000,g 15.7,2.0
# From MPEC 2022-M21
C/2018 V4 (Africano),e,69.0425,78.2471,0.1055,216.6029,0.0003092,0.98520616,0.0000,03/02.4126/2019,2000,g 12.5,4.0
# From MPEC 2021-P47
P/2018 V5 (Trujillo-Sheppard),e,10.5770,171.2898,260.9015,8.982020,0.0366136,0.47574663,90.4283,07/11.0/2025,2000,g 12.5,4.0
# From MPEC 2021-P47
C/2018 W1 (Catalina),e,83.3926,233.6288,251.1645,21.74331,0.0097211,0.93785685,21.8725,07/11.0/2025,2000,g 15.5,2.0
# From MPEC 2021-P47
C/2018 W2 (Africano),h,09/05.7482/2019,116.5322,181.9895,158.2410,1.000948,1.465361,2000,9.5,4.0
# From MPEC 2023-M14
A/2018 W3,e,104.8376,251.6872,313.8586,699.2313,0.0000533,0.99387686,0.0000,04/13.1685/2021,2000,g 10.7,2.0
# From MPC119996
C/2018 X2 (Fitzsimmons),e,23.1092,340.6281,162.0137,141.0420,0.0005884,0.98503393,0.0000,07/09.9087/2019,2000,g 12.0,4.0
# From MPC114604
C/2018 X3 (PANSTARRS),e,43.4255,78.7971,359.8720,12.41337,0.0225356,0.78289654,53.6874,07/11.0/2025,2000,g 14.5,4.0
# From MPEC 2024-A43
C/2018 Y1 (Iwamoto),e,160.4852,147.3313,357.8679,126.3576,0.0006939,0.98976082,0.0000,02/03.2974/2019,2000,g 11.5,4.0
# From MPC114605
P/2018 Y2 (Africano),e,11.6957,297.1152,162.3954,7.457617,0.0483954,0.48001844,115.1465,07/11.0/2025,2000,g 11.5,4.0
# From MPC114605
P/2019 A1 (PANSTARRS),e,13.7726,312.2097,150.7898,5.112322,0.0852662,0.57032063,209.8521,07/11.0/2025,2000,g 16.0,4.0
# From MPEC 2021-P47
P/2019 A2 (ATLAS),e,14.8740,139.3654,323.9628,5.710392,0.0722279,0.38330083,174.8339,07/11.0/2025,2000,g 10.5,4.0
# From MPEC 2022-M21
P/2019 A3 (PANSTARRS),e,15.3547,31.2540,325.6413,3.145787,0.1766485,0.26761792,87.4897,07/11.0/2025,2000,g 16.0,4.0
# From MPEC 2022-L66
P/2019 A4 (PANSTARRS),e,13.3060,119.3536,343.2467,2.614478,0.2331453,0.08743319,200.3256,07/11.0/2025,2000,g 15.0,4.0
# From MPEC 2021-P47
C/2019 A5 (PANSTARRS),e,67.5516,146.5105,355.8316,21.50699,0.0098818,0.70647434,21.9960,07/11.0/2025,2000,g  9.5,4.0
# From MPC114605
P/2019 A6 (Lemmon-PANSTARRS),e,33.2989,280.1732,156.2530,5.356804,0.0794960,0.64035363,199.0479,07/11.0/2025,2000,g 16.0,4.0
# From MPC118842
C/2019 A9 (PANSTARRS),e,84.4011,278.4716,237.8772,39.31921,0.0039976,0.96372425,8.6975,07/11.0/2025,2000,g 15.0,4.0
# From MPEC 2022-L66
C/2019 B1 (Africano),e,123.4946,290.2312,174.8308,139.8467,0.0005960,0.98852989,0.0000,03/18.2453/2019,2000,g 16.0,4.0
# From MPC115885
P/2019 B2 (Groeller),e,16.9502,175.6448,0.5787,3.929045,0.1265533,0.35769185,284.9196,07/11.0/2025,2000,g 14.5,4.0
# From MPEC 2024-JU4
C/2019 B3 (PANSTARRS),e,66.6067,358.4015,263.9994,3570,0.0000046,0.99808694,0.0000,01/19.5507/2021,2000,g  5.5,4.0
# From MPEC 2021-P47
C/2019 C1 (ATLAS),e,36.0371,212.3675,319.0180,691.5998,0.0000542,0.99050447,0.0000,05/04.6103/2020,2000,g 10.0,4.0
# From MPEC 2022-O08
C/2019 D1 (Flewelling),e,34.0130,231.6690,70.7133,136.2979,0.0006194,0.98831804,0.0000,05/08.7133/2019,2000,g 13.0,4.0
# From MPEC 2025-N64
C/2019 E3 (ATLAS),e,84.3159,347.1940,280.7197,5457,0.0000024,0.99810997,0.0000,11/15.6438/2023,2000,g  2.5,4.0
# From MPEC 2024-GJ3
C/2019 F1 (ATLAS-Africano),h,06/21.1100/2021,54.2546,38.6643,251.3006,1.000252,3.608308,2000,5.5,4.0
# From MPEC 2025-A40
C/2019 F2 (ATLAS),e,19.3365,175.3442,11.6088,16.55590,0.0146310,0.86478326,31.2108,07/11.0/2025,2000,g 12.0,4.0
# From MPEC 2024-E01
C/2019 G2 (PANSTARRS),e,159.2549,208.2404,82.7914,401.5033,0.0001225,0.99425583,0.0000,12/06.4243/2019,2000,g 15.0,4.0
# From MPEC 2022-VC5
A/2019 G3,e,156.8092,49.8910,161.7229,17.11181,0.0139239,0.83424999,33.5761,07/11.0/2025,2000,g 17.1,2.0
# From MPC114607
P/2019 GG21 (PANSTARRS),e,6.0827,340.5657,208.5910,7.468767,0.0482871,0.47164195,108.8573,07/11.0/2025,2000,g 12.0,4.0
# From MPEC 2022-M21
C/2019 H1 (NEOWISE),e,104.3566,269.3123,19.2382,227.3274,0.0002876,0.99190696,0.0000,04/26.8049/2019,2000,g 15.5,4.0
# From MPEC 2023-A50
C/2019 J1 (Lemmon),e,24.5221,98.2366,167.5631,66.42939,0.0018204,0.96264583,4.1653,07/11.0/2025,2000,g 12.0,4.0
# From MPEC 2021-R75
C/2019 J2 (Palomar),e,105.2103,25.4579,98.5446,160.0632,0.0004867,0.98929194,0.0000,07/21.1734/2019,2000,g 13.0,4.0
# From MPC117071
C/2019 J3 (ATLAS),e,131.2933,270.6558,16.4873,17373,0.0000004,0.99986408,0.0000,08/01.8784/2019,2000,g 13.5,4.0
# From MPEC 2022-M21
C/2019 JU6 (ATLAS),e,148.2977,21.6824,94.7626,13316,0.0000006,0.99984746,0.0000,06/02.8985/2019,2000,g 14.5,4.0
# From MPEC 2022-O08
C/2019 K1 (ATLAS),e,87.0189,73.3122,265.7837,2882,0.0000064,0.99929863,0.0000,02/10.8200/2020,2000,g 10.0,4.0
# From MPC119997
C/2019 K4 (Ye),e,105.2871,180.3042,140.0238,1635,0.0000149,0.99860784,0.0000,06/15.3016/2019,2000,g 12.5,4.0
# From MPEC 2021-P47
C/2019 K5 (Young),e,15.2912,177.2815,175.1411,168.1704,0.0004519,0.98777798,0.0000,06/21.2347/2019,2000,g 13.0,4.0
# From MPEC 2021-P47
C/2019 K6 (PANSTARRS),e,132.3904,42.9773,187.4272,918.6575,0.0000354,0.99573588,0.0000,05/18.4959/2020,2000,g 11.5,4.0
# From MPEC 2024-GJ3
C/2019 K7 (Smith),h,06/17.0825/2020,103.4760,308.0376,27.3535,1.000299,4.474024,2000,6.0,4.0
# From MPEC 2021-R75
C/2019 K8 (ATLAS),e,93.0468,290.9882,85.3734,1653,0.0000147,0.99806504,0.0000,07/20.1006/2019,2000,g 11.5,4.0
# From MPEC 2023-A50
C/2019 L1 (PANSTARRS),e,9.9737,254.4271,50.0079,9.817178,0.0320423,0.70405222,69.3726,07/11.0/2025,2000,g 13.5,4.0
# From MPC115886
C/2019 L2 (NEOWISE),e,152.1455,12.5833,18.8467,25.14741,0.0078156,0.93555476,17.8985,07/11.0/2025,2000,g 16.0,4.0
# From MPEC 2024-GJ3
P/2019 LD2 (ATLAS),e,11.6148,178.6714,116.4066,5.166967,0.0839171,0.13150307,166.9306,07/11.0/2025,2000,g  8.5,4.0
# From MPEC 2025-MC0
